#dP2021 12  5  0  0  0.00000000      96 __u+U ITR00 FIT  IAC
## 2187      0.00000000   900.00000000 59553 0.0000000000000
+  113   C06C07C08C09C10C11C12C13C14C16C19C20C21C22C23C24C25
+        C26C27C28C29C30C32C33C34C35C36C37C38C39C40C41C42C43
+        C44C45C46E01E02E03E04E05E07E08E09E11E12E13E14E15E18
+        E19E21E24E25E26E27E30E31E33E36G01G02G03G04G05G06G07
+        G08G09G10G12G13G14G15G16G17G18G19G20G21G22G23G24G25
+        G26G27G28G29G30G31G32R01R02R03R04R05R07R08R09R11R12
+        R13R14R15R16R17R18R19R20R21R22R24  0  0  0  0  0  0
++         6  8 11  7  8  8  6 14  8  6  6  6  8  7  7  7  7
++         8  7  8  7  7  8  7  8  7  7  8  7  8  8  9  6  7
++         8  7  8  7  7  7  5  6  6  6  6  7  6  7  7  6  7
++         8  8  6  7  7  8  7  6  7  7  5  7  6  7  6  6  5
++         7  6  7  6  6  6  6  7  4  6  8  7  7  5  6  6  5
++         6  6  5  7  7  6  5  8  7  7  8  5  6  6  8  6  7
++         6  7  7  7  7  7  7  8  8  5  6  0  0  0  0  0  0
%c M  cc GPS ccc cccc cccc cccc cccc ccccc ccccc ccccc ccccc
%c cc cc ccc ccc cccc cccc cccc cccc ccccc ccccc ccccc ccccc
%f  0.0000000  0.000000000  0.00000000000  0.000000000000000
%f  0.0000000  0.000000000  0.00000000000  0.000000000000000
%i    0    0    0    0      0      0      0      0         0
%i    0    0    0    0      0      0      0      0         0
/* INFORMATION & ANALYSIS CENTER (IAC)      ULTRA-RAPID DATA
/* S/V CLOCKS ARE ALIGNED TO GNSS TIME                      
/* G:C1WC2W R:C1PC2P E:C1XC5X C:C2IC6I J:C1CC2S             
/* PCV:IGS14_2178 OL/AL:FES2004  NONE     YN ORB:CoN CLK:CoN
*  2021 12 05  8 45  0.00000000
PC06 -16588.163428  29270.937033  25287.000307    588.471091
PC07  -6708.414367  40151.320301  11242.514203    158.654188
PC08   -527.735442  23227.163566 -35152.941440    -48.979924
PC09  -9943.092536  28217.590603  29833.578980   -322.610776
PC10   -554.488045  42222.702952   4279.093819    136.327365
PC11 -23076.226786   -445.243411  15785.870344   -352.219123
PC12  -8257.796037 -13031.484901  23297.314858   -423.790376
PC13   4318.397216  26001.350443 -32707.804777   -187.671115
PC14 -15107.939502  -7308.692286 -22272.297873    508.323884
PC16 -21757.498721  28835.001109  21678.152495     13.129665
PC19  15801.025707  -4166.131053  22637.662581    926.634568
PC20  12535.684888  15864.924401  19248.702453   -792.787811
PC21  -1500.389941 -27555.376438  -4090.337184   -943.561599
PC22  10065.239988 -22530.519848  13007.381267   -969.163288
PC23 -11340.707891  11903.881913  22552.353318   -963.152375
PC24 -21972.665211 -16965.502623  -3035.325490   -954.338924
PC25 -23665.600764  -2352.772641  14613.954554   -814.636555
PC26  -8947.923663 -20052.844176 -17254.273347    812.267536
PC27  -1494.010426  17475.809498 -21716.832236    640.242424
PC28 -19418.016358  17336.363970 -10061.058177      5.249786
PC29  25658.989395  -7928.077657  -7587.712946    483.426261
PC30  17021.123398   7259.565729 -20895.322562    487.986397
PC32   1682.666706  27562.571231   4042.045132   -958.006116
PC33 -15804.721419   4165.218618 -22621.338247   -963.874367
PC34 -17720.352139  -6662.797016  20489.742955   -521.722765
PC35  19194.346904 -17884.647863   9555.370681     31.819162
PC36  23738.313362   3280.283799 -14267.821128   -822.860721
PC37   7384.739628  20081.772075  17914.135838   -905.364026
PC38 -11310.767930  20461.669785 -35073.036457    194.363027
PC39 -24712.852514  29522.676057  16994.286975     34.236319
PC40 -11997.064247  37194.459782  16017.568139    223.770475
PC41 -10181.919186  22308.288616 -13267.415938   -915.589116
PC42 -12197.470666 -16719.688562 -18678.575613   -936.101459
PC43 -25660.734219   7328.921120   8121.124369   -956.412840
PC44   1108.767574 -17710.359237  21539.030733    488.010075
PC45  11030.050203 -11982.468609 -22657.088306    618.727432
PC46  22567.048214  16274.481739   1805.718018    -44.113458
PE01   8600.752837  27195.697693   7891.999599   -531.421171
PE02  -8732.203171 -27217.105180  -7737.185557    264.795430
PE03   1352.742937 -24566.678630 -16460.838251   -503.095441
PE04  13828.336380  10112.677303  24135.309120   -914.120344
PE05  16036.452132 -24859.531841   1040.939069   -228.827240
PE07 -21188.627734  10664.077331 -17712.519583   -614.272097
PE08 -14010.240006  -9578.253474 -24258.995791   5893.975596
PE09  21058.114466 -11003.512186  17641.605864   5440.577565
PE11  28970.138276  -2928.471742   5342.119437   4954.142124
PE12  24373.979132   9493.632125 -13859.111232   4876.348519
PE13 -29097.786788   2613.834853  -4761.877487    424.373681
PE14  -9006.680775  26961.767686 -14547.837929  -1663.805536
PE15 -24327.104479  -9440.148375  13987.002958    777.073305
PE18  12039.226447 -20036.083531   6570.389096  -1829.683641
PE19  -3528.810515  25443.395460  14699.400462    444.415374
PE21  -6062.676828  19382.960008  21533.881991   -703.484094
PE24  18478.251899   1216.426791 -23092.798629  -1262.948141
PE25   6225.374045 -19219.073454 -21630.002358   -555.836068
PE26 -15764.103247  13527.262698 -21082.838515   -533.787830
PE27 -18061.963344     20.269788  23461.290644   -179.912843
PE30 -18961.309880 -20155.498345  10534.362942    -84.638625
PE31  19329.365844  19189.860900 -11564.225685   -488.950724
PE33   5241.048768  15880.231171 -24413.962982   -461.790320
PE36  16731.410470 -13078.016877  20628.131258   -299.518165
PG01  17407.563341  13587.502615 -15279.767630    492.425083
PG02   5282.611328 -14837.221105  22062.834594   -644.593125
PG03  12910.436151  22271.801727   6647.428203    -32.043256
PG04   8633.954402  12922.378190  21530.909874   -200.031994
PG05  -4340.382168 -24914.878797   7693.143085    -63.353376
PG06  20502.358558  -6770.319431  15575.876596    134.696675
PG07  26110.996109   6032.833624   1687.857740    287.002845
PG08  -1099.825921  20175.707220 -17076.384359    -46.871362
PG09  17176.896352   1506.590777  20135.076353   -360.958309
PG10 -14422.173267   3958.762004 -21829.633777   -261.472056
PG12 -10246.132523 -24058.505432   4794.316935   -136.209346
PG13   9776.730386 -21003.727481 -13001.397179    224.752736
PG14  14940.176836  -3597.098049 -21666.190307    -50.036235
PG15  -2219.335009 -20256.910882 -17267.354723   -101.475615
PG16   -777.722266  24180.700214  10149.058950   -435.369392
PG17  21060.550133 -10983.097478 -11475.627212    543.145286
PG18 -26082.258672  -5300.056224    162.154718    284.767543
PG19  20743.364934 -15938.749270  -4285.950957     88.117888
PG20   2580.493610 -20614.954678  16677.799548    517.790281
PG21   9572.688440  14662.276958 -19456.093986    152.910303
PG22  10466.583537  24456.099535  -1810.489521   -448.777226
PG23 -17087.000574  -8398.708626 -18574.576227     25.306559
PG24 -13810.715468 -14627.957471 -17822.868900    272.786874
PG25 -16143.419357 -15981.024676  13720.923452    251.015864
PG26  -9031.421915  15346.212129  19549.108448    161.983460
PG27 -10433.137951  22387.176533  -9419.733182   -227.318139
PG28  11335.732756 -11859.489251 -20402.464763    449.402760
PG29 -13943.102451  -6401.392468  21648.882595   -449.790818
PG30  25185.434287  -1454.000893  -8614.754545   -496.869383
PG31 -19199.263102   8098.208495  16620.946401   -153.512685
PG32 -20156.289409  14686.306245  -8749.229759    -30.835081
PR01   9804.547881   6325.208240  22678.294927     89.046580
PR02  11929.607200 -14843.093149  17042.915907    502.280790
PR03   6522.860595 -24661.853203   1291.005558     47.602943
PR04  -2264.968617 -20489.913227 -15013.222866    117.382760
PR05  -9831.125781  -5078.089201 -22980.757514     83.655053
PR07  -6167.838200  24717.591771   -478.617038    -39.463453
PR08   2487.731529  20405.107266  15131.442644    -62.376487
PR09 -13097.576196   2553.862448  21742.484719     27.109297
PR11  14963.132389  18962.255971   8223.616640     49.395850
PR12  20008.081820  12106.095214 -10133.705172    283.964533
PR13  13648.105106  -1446.280749 -21515.001083    -64.413426
PR14  -1538.785461 -15005.925002 -20555.430094     71.727171
PR15 -15110.539438 -19131.023041  -7494.804376     99.797706
PR16 -20296.422182 -10755.938621  11217.630002    -26.212864
PR17  11463.336006 -12395.872858  19117.288719    480.827080
PR18  -6174.427097  -9007.110112  23068.744497     99.444474
PR19 -20086.864464  -1986.161700  15607.670438   -169.527397
PR20 -23974.485083   7818.520864  -3702.335480    -60.622269
PR21 -10275.465578  12258.004688 -19874.898636   -259.808718
PR22   7250.605249   8593.617814 -22913.019385   -149.454927
PR24  23563.009784  -8692.691219   4426.178197     69.843450
EOF
